[{"OBJECT_NAME":"OCO 2","OBJECT_ID":"2014-035A","EPOCH":"2026-04-25T21:32:14.315424","MEAN_MOTION":14.57145318,"ECCENTRICITY":0.00016108,"INCLINATION":98.1988,"RA_OF_ASC_NODE":57.9976,"ARG_OF_PERICENTER":79.8767,"MEAN_ANOMALY":280.2613,"EPHEMERIS_TYPE":0,"CLASSIFICATION_TYPE":"U","NORAD_CAT_ID":40059,"ELEMENT_SET_NO":999,"REV_AT_EPOCH":62843,"BSTAR":0.00010751209,"MEAN_MOTION_DOT":4.4e-6,"MEAN_MOTION_DDOT":0},{"OBJECT_NAME":"BRITE-PL2 (HEWELIUSZ)","OBJECT_ID":"2014-049B","EPOCH":"2026-04-25T21:09:18.868032","MEAN_MOTION":14.94395237,"ECCENTRICITY":0.00126939,"INCLINATION":97.9035,"RA_OF_ASC_NODE":227.5041,"ARG_OF_PERICENTER":284.5467,"MEAN_ANOMALY":75.4344,"EPHEMERIS_TYPE":0,"CLASSIFICATION_TYPE":"U","NORAD_CAT_ID":40119,"ELEMENT_SET_NO":999,"REV_AT_EPOCH":63363,"BSTAR":0.00016221872,"MEAN_MOTION_DOT":1.689e-5,"MEAN_MOTION_DDOT":0},{"OBJECT_NAME":"MMS 1","OBJECT_ID":"2015-011A","EPOCH":"2026-04-26T00:00:02.999808","MEAN_MOTION":0.28219139,"ECCENTRICITY":0.83654097,"INCLINATION":71.4226,"RA_OF_ASC_NODE":349.485,"ARG_OF_PERICENTER":166.4039,"MEAN_ANOMALY":14.7519,"EPHEMERIS_TYPE":0,"CLASSIFICATION_TYPE":"U","NORAD_CAT_ID":40482,"ELEMENT_SET_NO":999,"REV_AT_EPOCH":135,"BSTAR":0,"MEAN_MOTION_DOT":-7.0e-6,"MEAN_MOTION_DDOT":0},{"OBJECT_NAME":"MMS 2","OBJECT_ID":"2015-011B","EPOCH":"2026-04-26T00:00:02.999808","MEAN_MOTION":0.28218983,"ECCENTRICITY":0.83661732,"INCLINATION":71.4227,"RA_OF_ASC_NODE":349.4872,"ARG_OF_PERICENTER":166.4098,"MEAN_ANOMALY":14.7376,"EPHEMERIS_TYPE":0,"CLASSIFICATION_TYPE":"U","NORAD_CAT_ID":40483,"ELEMENT_SET_NO":999,"REV_AT_EPOCH":135,"BSTAR":0,"MEAN_MOTION_DOT":-7.01e-6,"MEAN_MOTION_DDOT":0},{"OBJECT_NAME":"MMS 3","OBJECT_ID":"2015-011C","EPOCH":"2026-04-26T00:00:02.999808","MEAN_MOTION":0.2821895,"ECCENTRICITY":0.83654052,"INCLINATION":71.4255,"RA_OF_ASC_NODE":349.4918,"ARG_OF_PERICENTER":166.4041,"MEAN_ANOMALY":14.7398,"EPHEMERIS_TYPE":0,"CLASSIFICATION_TYPE":"U","NORAD_CAT_ID":40484,"ELEMENT_SET_NO":999,"REV_AT_EPOCH":135,"BSTAR":0,"MEAN_MOTION_DOT":-7.0e-6,"MEAN_MOTION_DDOT":0},{"OBJECT_NAME":"MMS 4","OBJECT_ID":"2015-011D","EPOCH":"2026-04-26T00:00:02.999808","MEAN_MOTION":0.2821877,"ECCENTRICITY":0.83649663,"INCLINATION":71.4226,"RA_OF_ASC_NODE":349.4872,"ARG_OF_PERICENTER":166.4118,"MEAN_ANOMALY":14.7271,"EPHEMERIS_TYPE":0,"CLASSIFICATION_TYPE":"U","NORAD_CAT_ID":40485,"ELEMENT_SET_NO":999,"REV_AT_EPOCH":135,"BSTAR":0,"MEAN_MOTION_DOT":-7.01e-6,"MEAN_MOTION_DDOT":0},{"OBJECT_NAME":"ASTROSAT","OBJECT_ID":"2015-052A","EPOCH":"2026-04-22T07:40:32.970720","MEAN_MOTION":14.82404932,"ECCENTRICITY":0.00084052,"INCLINATION":5.9962,"RA_OF_ASC_NODE":197.455,"ARG_OF_PERICENTER":315.179,"MEAN_ANOMALY":44.7659,"EPHEMERIS_TYPE":0,"CLASSIFICATION_TYPE":"U","NORAD_CAT_ID":40930,"ELEMENT_SET_NO":999,"REV_AT_EPOCH":57152,"BSTAR":9.2059685e-5,"MEAN_MOTION_DOT":1.425e-5,"MEAN_MOTION_DDOT":0},{"OBJECT_NAME":"DAMPE","OBJECT_ID":"2015-078A","EPOCH":"2026-04-26T00:03:20.377152","MEAN_MOTION":15.30649769,"ECCENTRICITY":0.00102417,"INCLINATION":97.458,"RA_OF_ASC_NODE":121.2164,"ARG_OF_PERICENTER":261.1779,"MEAN_ANOMALY":98.8302,"EPHEMERIS_TYPE":0,"CLASSIFICATION_TYPE":"U","NORAD_CAT_ID":41173,"ELEMENT_SET_NO":999,"REV_AT_EPOCH":57656,"BSTAR":4.3240033e-5,"MEAN_MOTION_DOT":1.204e-5,"MEAN_MOTION_DDOT":0},{"OBJECT_NAME":"PISAT","OBJECT_ID":"2016-059B","EPOCH":"2026-04-25T23:10:54.688800","MEAN_MOTION":14.68885946,"ECCENTRICITY":0.00294315,"INCLINATION":97.819,"RA_OF_ASC_NODE":118.6664,"ARG_OF_PERICENTER":15.436,"MEAN_ANOMALY":344.7737,"EPHEMERIS_TYPE":0,"CLASSIFICATION_TYPE":"U","NORAD_CAT_ID":41784,"ELEMENT_SET_NO":999,"REV_AT_EPOCH":51207,"BSTAR":0.00019348534,"MEAN_MOTION_DOT":1.091e-5,"MEAN_MOTION_DDOT":0},{"OBJECT_NAME":"HXMT (HUIYAN)","OBJECT_ID":"2017-034A","EPOCH":"2026-04-25T23:07:12.044640","MEAN_MOTION":15.1799201,"ECCENTRICITY":0.00314303,"INCLINATION":43.0132,"RA_OF_ASC_NODE":113.7281,"ARG_OF_PERICENTER":176.5103,"MEAN_ANOMALY":183.597,"EPHEMERIS_TYPE":0,"CLASSIFICATION_TYPE":"U","NORAD_CAT_ID":42758,"ELEMENT_SET_NO":999,"REV_AT_EPOCH":48972,"BSTAR":0.00019098667,"MEAN_MOTION_DOT":3.759e-5,"MEAN_MOTION_DDOT":0},{"OBJECT_NAME":"FLYING LAPTOP","OBJECT_ID":"2017-042G","EPOCH":"2026-04-25T22:04:25.099680","MEAN_MOTION":15.0080844,"ECCENTRICITY":0.00182215,"INCLINATION":97.4455,"RA_OF_ASC_NODE":273.551,"ARG_OF_PERICENTER":303.8617,"MEAN_ANOMALY":56.0873,"EPHEMERIS_TYPE":0,"CLASSIFICATION_TYPE":"U","NORAD_CAT_ID":42831,"ELEMENT_SET_NO":999,"REV_AT_EPOCH":47861,"BSTAR":0.000222956,"MEAN_MOTION_DOT":2.783e-5,"MEAN_MOTION_DDOT":0},{"OBJECT_NAME":"ZHANGHENG 1-01 (CSES-1)","OBJECT_ID":"2018-015C","EPOCH":"2026-04-25T23:06:17.517600","MEAN_MOTION":15.20653261,"ECCENTRICITY":0.0017955,"INCLINATION":97.6829,"RA_OF_ASC_NODE":280.5955,"ARG_OF_PERICENTER":86.2973,"MEAN_ANOMALY":274.0315,"EPHEMERIS_TYPE":0,"CLASSIFICATION_TYPE":"U","NORAD_CAT_ID":43194,"ELEMENT_SET_NO":999,"REV_AT_EPOCH":45670,"BSTAR":0.00040216937,"MEAN_MOTION_DOT":8.796e-5,"MEAN_MOTION_DDOT":0},{"OBJECT_NAME":"SALSAT","OBJECT_ID":"2020-068K","EPOCH":"2026-04-25T22:26:17.896704","MEAN_MOTION":15.29005761,"ECCENTRICITY":0.00115234,"INCLINATION":97.8865,"RA_OF_ASC_NODE":115.8517,"ARG_OF_PERICENTER":121.2153,"MEAN_ANOMALY":239.0216,"EPHEMERIS_TYPE":0,"CLASSIFICATION_TYPE":"U","NORAD_CAT_ID":46495,"ELEMENT_SET_NO":999,"REV_AT_EPOCH":30737,"BSTAR":0.00034294036,"MEAN_MOTION_DOT":9.598e-5,"MEAN_MOTION_DDOT":0},{"OBJECT_NAME":"IXPE","OBJECT_ID":"2021-121A","EPOCH":"2026-04-25T22:00:01.999584","MEAN_MOTION":15.09747316,"ECCENTRICITY":0.00071511,"INCLINATION":0.2305,"RA_OF_ASC_NODE":352.5551,"ARG_OF_PERICENTER":10.4929,"MEAN_ANOMALY":132.2524,"EPHEMERIS_TYPE":0,"CLASSIFICATION_TYPE":"U","NORAD_CAT_ID":49954,"ELEMENT_SET_NO":999,"REV_AT_EPOCH":553,"BSTAR":0.0010684854,"MEAN_MOTION_DOT":0.00018735,"MEAN_MOTION_DDOT":0}]
